0 XW-2C
1 40906U 15049H   23095.56939269  .00017749  00000-0  72192-3 0  9998
2 40906  97.4971 102.5527 0014183  62.8817  65.6735 15.24497965417320
0 ISS (ZARYA)
1 25544U 98067A   23095.54115885  .00016307  00000-0  29793-3 0  9996
2 25544  51.6420 328.5063 0006770 156.1433 278.8701 15.49518767390525
0 CSS (TIANHE-1)
1 48274U 21035A   23095.48457881 -.00083160  00000-0 -86613-3 0  9997
2 48274  41.4765 239.1806 0003261 274.4122 136.6412 15.63830582110463
0 XW-2A
1 40903U 15049E   23095.46544204  .00468268  92561-4  10974-2 0  9997
2 40903  97.1211 163.2810 0004402 177.4501 309.0392 15.96931088424911
0 TEVEL 8
1 50989U 22002F   23095.45273461  .00026759  00000-0  11691-2 0  9997
2 50989  97.4437 163.0980 0010192 127.8716 355.9578 15.22032014 67688
0 XW-2D
1 40907U 15049J   23095.26568697  .00021294  00000-0  82640-3 0  9998
2 40907  97.4952 102.6062 0013442  59.2938 358.7766 15.26039863417350
0 LILACSAT 2
1 40908U 15049K   23095.25815109  .00009410  00000-0  45467-3 0  9993
2 40908  97.5265  98.5675 0016491  85.1215 331.2811 15.18735636416724
0 XW-2B
1 40911U 15049N   23095.25135593  .00021000  00000-0  81976-3 0  9993
2 40911  97.4934 103.0713 0013313  60.9057 355.3488 15.25848365417236
0 ZHUHAI-1 01
1 42761U 17034D   23095.25068490  .00012368  00000-0  64076-3 0  9994
2 42761  43.0162 159.2927 0011933 346.0467  61.0961 15.16079128320570
0 XW-2E
1 40909U 15049L   23095.24798904  .00037915  00000-0  11511-2 0  9999
2 40909  97.4599 108.1949 0010529  40.1817  20.2540 15.33934446417947
0 AO-91
1 43017U 17073E   23095.24079165  .00010655  00000-0  75898-3 0  9993
2 43017  97.6413 342.4727 0235500 310.2782  47.8053 14.85061293290359
0 OBJECT C
1 54684U 22167C   23095.22459671  .00018341  00000-0  10652-2 0  9993
2 54684  97.5488 233.4487 0014029 223.1864 258.3980 15.12084783 17645
0 XW-3 (CAS 9)
1 50466U 21131B   23095.22329059  .00001105  00000-0  37371-3 0  9991
2 50466  98.5531 176.9983 0004198  16.0814 344.0506 14.38804271 66865
0 AO-95
1 43770U 18099N   23095.22025253  .00006179  00000-0  51360-3 0  9999
2 43770  97.5796 158.7382 0013520  18.3152 341.8555 14.99003733236675
0 DIWATA 2B
1 43678U 18084H   23095.21808773  .00003202  00000-0  31238-3 0  9991
2 43678  98.0075 237.7795 0010410  48.7188 311.4930 14.93137278241374
0 XW-2F
1 40910U 15049M   23095.21699253  .00037754  00000-0  11678-2 0  9990
2 40910  97.4690 107.3811 0011534  38.3623  27.7986 15.33332782417694
0 TEVEL 4
1 51063U 22002CH  23095.18333341  .00027234  00000-0  11912-2 0  9990
2 51063  97.4429 162.7947 0010047 129.5917 288.5772 15.21992244 67645
0 TEVEL 7
1 51062U 22002CG  23095.17893064  .00027372  00000-0  11958-2 0  9994
2 51062  97.4424 162.8014 0010152 129.9775 285.3809 15.22031518 67643
0 ZHUHAI-1 02
1 42759U 17034B   23095.17608192  .00014530  00000-0  75153-3 0  9992
2 42759  43.0174 161.1532 0011026 343.9836 112.8830 15.16036726320558
0 TEVEL 1
1 51013U 22002AF  23095.17009428  .00027321  00000-0  11932-2 0  9999
2 51013  97.4415 162.7206 0010127 129.7286 290.0457 15.22042900 67647
0 TEVEL 2
1 51069U 22002CP  23095.16288729  .00027436  00000-0  11968-2 0  9998
2 51069  97.4413 162.7341 0010185 128.7992 283.8054 15.22081463 67643
0 TEVEL 3
1 50988U 22002E   23095.16097519  .00027320  00000-0  11918-2 0  9999
2 50988  97.4416 162.7570 0010151 129.2894 283.0839 15.22080124 67645
0 JY1SAT
1 43803U 18099AX  23095.15581585  .00007005  00000-0  56809-3 0  9995
2 43803  97.5779 159.6381 0013516   3.9652 356.1676 14.99903345236741
0 TEVEL 5
1 50998U 22002Q   23095.14271705  .00028335  00000-0  12101-2 0  9991
2 50998  97.4393 163.0430 0011043 126.1754 288.1959 15.22786778 67660
0 TEVEL 6
1 50999U 22002R   23095.14137664  .00028104  00000-0  12003-2 0  9992
2 50999  97.4388 163.0373 0010801 125.3507 289.3864 15.22790224 67668
0 EYESAT A
1 22825U 93061C   23095.10471450  .00000215  00000-0  10056-3 0  9992
2 22825  98.8506 136.7858 0007336 282.7782  77.2580 14.30277183540116
0 JAS 2
1 24278U 96046B   23094.98731425  .00000007  00000-0  45791-4 0  9992
2 24278  98.5240  83.5353 0349289 246.7234 109.6783 13.53140720315282
0 OSCAR 7
1 07530U 74089B   23094.92941299 -.00000039  00000-0  46190-4 0  9993
2 07530 101.9438  81.1234 0012042 202.4093 214.6556 12.53662978213993
0 SAUDISAT 1C
1 27607U 02058C   23094.91468735  .00001957  00000-0  28394-3 0  9999
2 27607  64.5540 129.5312 0074968 239.3366 120.0333 14.77059281 91407
0 NAYIF 1
1 42017U 17008BX  23094.89211152  .00101204  00000-0  13296-2 0  9998
2 42017  97.2211 164.1565 0003446 242.5856 117.5050 15.58161389341986
0 BREEZE-KM R/B
1 44909U 19096E   23094.88813493  .00000012  00000-0  71887-5 0  9992
2 44909  82.5250  36.6433 0217598 358.6732   1.3764 12.79719703152837
0 ES'HAIL 2
1 43700U 18090A   23094.88590972  .00000148  00000-0  00000-0 0  9991
2 43700   0.0152 248.7800 0001185 142.1793 146.7099  1.00274116 15953
0 FUNCUBE 1
1 39444U 13066AE  23094.88160161  .00005383  00000-0  60738-3 0  9995
2 39444  97.6649  61.6721 0054610 152.6219 207.7894 14.85871481504757
0 AO-92
1 43137U 18004AC  23094.87847255  .00036313  00000-0  88357-3 0  9995
2 43137  97.3335 173.5415 0006061  55.9635 304.2187 15.40849695291000
0 NEXUS
1 43937U 19003F   23094.84771890  .00046985  00000-0  98529-3 0  9999
2 43937  97.0966 123.3247 0015950 175.9183 184.2200 15.45117814234699
0 LAPAN A2
1 40931U 15052B   23094.49844990  .00001639  00000-0  13732-3 0  9993
2 40931   5.9977 252.5757 0013542 331.4266  28.5536 14.77138368406444
0 UVSQ-SAT
1 47438U 21006AB  23094.39164294  .00020458  00000-0  89669-3 0  9991
2 47438  97.3937 152.6526 0009294 348.8082  11.2946 15.21985241121410
0 MT-CUBE-2
1 53106U 22080B   23088.05176028 -.00000003  00000-0  00000-0 0  9991
2 53106  70.1795 347.5677 0008286 204.3079 155.7190  6.42557135 16603
0 XW-4 (CAS-10)
1 54816U 21035C   23072.25043904  .02330371  77621-5  12756-2 0  9996
2 54816  41.5077   9.4914 0017840 162.4710 197.7314 16.18206266 13316
